INTELSAT 902 (IS-902)   
1 26900U 01039A   26116.34140580 -.00000291  00000+0  00000+0 0  9992
2 26900   5.9878  72.4011 0004516 319.8366 254.9196  1.00270967 90178
INTELSAT 904 (IS-904)   
1 27380U 02007A   26115.70344657 -.00000235  00000+0  00000+0 0  9999
2 27380   6.7919  69.8016 0007682 338.1492  27.5120  1.00269882 51242
DIRECTV 5 (TEMPO 1)     
1 27426U 02023A   26116.52958546 -.00000065  00000+0  00000+0 0  9998
2 27426   4.7483  75.9366 0003454 321.8899 257.2472  1.00271908 87609
INTELSAT 905 (IS-905)   
1 27438U 02027A   26116.54100324  .00000086  00000+0  00000+0 0  9992
2 27438   6.6267  70.4097 0003443 338.8087 222.8894  1.00273539 50843
GALAXY 3C (G-3C)        
1 27445U 02030A   26116.40391528 -.00000162  00000+0  00000+0 0  9993
2 27445   3.5982  78.6677 0001555  25.1237 161.1577  1.00271563 45976
INTELSAT 906 (IS-906)   
1 27513U 02041A   26116.50671990  .00000005  00000+0  00000+0 0  9991
2 27513   5.6728  73.5414 0004031 335.4769  52.0681  1.00270567 86517
GALAXY 13 (HORIZONS-1)  
1 27954U 03044A   26116.54632352  .00000122  00000+0  00000+0 0  9997
2 27954   1.2858  84.4681 0002207 314.0251 222.7305  1.00273364 46053
INTELSAT 10-02          
1 28358U 04022A   26116.35119918  .00000000  00000+0  00000+0 0  9995
2 28358   0.0156  78.2725 0001333 352.3510 269.1304  1.00269975 80035
DIRECTV 8               
1 28659U 05019A   26116.52055068  .00000000  00000+0  00000+0 0  9990
2 28659   0.0140 229.3551 0003207 173.3416 240.1704  1.00270938 76552
GALAXY 28 (G-28)        
1 28702U 05022A   26116.41735837 -.00000209  00000+0  00000+0 0  9992
2 28702   3.1678  79.5518 0003127 320.7798 297.2241  1.00276457 51454
GALAXY 16 (G-16)        
1 29236U 06023A   26116.47439308 -.00000140  00000+0  00000+0 0  9991
2 29236   0.0216 228.5821 0003101 180.5205 237.1614  1.00274242 72451
DIRECTV 9S              
1 29494U 06043A   26116.47395976 -.00000124  00000+0  00000+0 0  9993
2 29494   2.2893  81.4927 0004176 329.4561 232.9478  1.00271630 50867
GALAXY 17 (G-17)        
1 31307U 07016B   26116.47716644 -.00000216  00000+0  00000+0 0  9991
2 31307   2.8434  80.5228 0004283 329.1463 251.5876  1.00270972 69284
INTELSAT 11 (IS-11)     
1 32253U 07044B   26116.35015918 -.00000205  00000+0  00000+0 0  9994
2 32253   3.4326  79.2733 0001425 224.1897  30.6468  0.99052914 67932
HORIZONS-2              
1 32388U 07063B   26116.47941977 -.00000264  00000+0  00000+0 0  9995
2 32388   2.4708  81.2324 0003417 321.7117 270.3345  1.00272569 67294
DIRECTV 11              
1 32729U 08013A   26116.47439308 -.00000138  00000+0  00000+0 0  9990
2 32729   0.0117 110.4304 0000212 248.1257 287.5065  1.00270434 45071
GALAXY 18 (G-18)        
1 32951U 08024A   26116.49697553  .00000013  00000+0  00000+0 0  9990
2 32951   0.0175 261.8352 0003199 138.2809 230.2901  1.00271841 45331
INTELSAT 25 (IS-25)     
1 33153U 08034A   26113.08239256 -.00000278  00000+0  00000+0 0  9994
2 33153   2.5670  80.9425 0002165 274.6153 207.9060  0.99965107 65143
GALAXY 19 (G-19)        
1 33376U 08045A   26116.47482641 -.00000151  00000+0  00000+0 0  9997
2 33376   0.0168 246.7452 0003296 164.5189 237.1413  1.00271994 64388
FM-5                    
1 35493U 09034A   26116.47690644 -.00000213  00000+0  00000+0 0  9991
2 35493   0.0141 265.8368 0000605  10.7443  23.4350  1.00272221 46127
INTELSAT 14 (IS-14)     
1 36097U 09064A   26116.48505314 -.00000286  00000+0  00000+0 0  9995
2 36097   0.0011 353.5697 0002455  40.1629 310.3729  1.00272167 60080
INTELSAT 15 (IS-15)     
1 36106U 09067A   26116.51087991 -.00000197  00000+0  00000+0 0  9990
2 36106   0.0281  98.9575 0002265 296.2234  88.4018  1.00271842 40711
DIRECTV 12              
1 36131U 09075A   26116.47369976 -.00000116  00000+0  00000+0 0  9999
2 36131   0.0412  79.8696 0000155 334.0668 228.3418  1.00271349 46037
INTELSAT 16 (IS-16)     
1 36397U 10006A   26116.47889977 -.00000257  00000+0  00000+0 0  9993
2 36397   0.0176 279.8680 0002039 145.6722 245.1504  1.00270165 59136
XM-5                    
1 37185U 10053A   26116.48030837 -.00000035  00000+0  00000+0 0  9999
2 37185   0.0635 271.3991 0003766 275.8035  84.9958  1.00269784 56960
INTELSAT 17 (IS-17)     
1 37238U 10065B   26116.50706655 -.00000014  00000+0  00000+0 0  9999
2 37238   0.0156 178.4685 0002793 233.6112  50.9730  1.00271450 52736
INTELSAT 28 (IS-28)     
1 37392U 11016A   26116.41640501 -.00000236  00000+0  00000+0 0  9990
2 37392   1.6742  83.2158 0004157 316.4296 292.9687  1.00270879 52768
INTELSAT 18 (IS-18)     
1 37834U 11056A   26116.52058627  .00000000  00000+0  00000+0 0  9997
2 37834   0.0178 241.4670 0001953 151.0118 189.4558  1.00270583 53297
INTELSAT 22 (IS-22)     
1 38098U 12011A   26116.50827991 -.00000070  00000+0  00000+0 0  9996
2 38098   0.0207 110.0840 0001760 289.9729  69.5323  1.00270661  6673
INTELSAT 19 (IS-19)     
1 38356U 12030A   26116.50044985 -.00000069  00000+0  00000+0 0  9996
2 38356   0.0434  69.0686 0002945 323.0946 168.4987  1.00268338 49939
INTELSAT 20 (IS-20)     
1 38740U 12043A   26116.50758655 -.00000036  00000+0  00000+0 0  9997
2 38740   0.0214 142.8520 0002248  30.9255 291.9598  1.00270622 50236
INTELSAT 21 (IS-21)     
1 38749U 12045A   26116.48253978 -.00000297  00000+0  00000+0 0  9992
2 38749   0.0577  78.5712 0002043 328.4578 283.1649  1.00271079 50003
INTELSAT 23 (IS-23)     
1 38867U 12057A   26116.48349314 -.00000297  00000+0  00000+0 0  9996
2 38867   0.0182 265.2798 0000364 353.1313  77.1099  1.00275911 49435
FM-6                    
1 39360U 13058A   26116.49683666 -.00000029  00000+0  00000+0 0  9992
2 39360   0.0081 249.2524 0000292  55.4494 332.3137  1.00275117 45559
INTELSAT 30 (IS-30)     
1 40271U 14062A   26114.39488937 -.00000165  00000+0  00000+0 0  9993
2 40271   0.0073 224.7449 0002247  46.3663 348.4158  1.00269572  6259
DIRECTV 14              
1 40333U 14078B   26116.40304860 -.00000138  00000+0  00000+0 0  9995
2 40333   0.0054 288.4036 0000233 259.6704  72.1876  1.00271033 41526
DIRECTV 15              
1 40663U 15026A   26116.47361308  .00000000  00000+0  00000+0 0  9999
2 40663   0.0146 117.6087 0000416  57.2325 107.2615  1.00268587 39941
SKY MEXICO-1            
1 40664U 15026B   26116.47837977  .00000000  00000+0  00000+0 0  9990
2 40664   0.0210 106.4227 0002164 290.6915 270.7719  1.00268740 39937
INTELSAT 34 (IS-34)     
1 40874U 15039A   26116.41172500 -.00000298  00000+0  00000+0 0  9995
2 40874   0.0153 282.8699 0000347  36.9318 347.3395  1.00272205 39119
INTELSAT 31 (IS-31)     
1 41581U 16035A   26116.40391528 -.00000163  00000+0  00000+0 0  9991
2 41581   0.0108 234.9935 0002208  37.4562 352.3217  1.00271820 36164
INTELSAT 36 (IS-36)     
1 41747U 16053A   26116.50758655 -.00000036  00000+0  00000+0 0  9993
2 41747   0.0134 322.9589 0001570   4.3799 138.3919  1.00269609 35449
INTELSAT 32E (IS-32E)   
1 41945U 17007B   26116.48548647  .00000000  00000+0  00000+0 0  9998
2 41945   0.0203 245.2802 0001533  69.0348  31.7753  1.00251322 33700
INTELSAT 35E (IS-35E)   
1 42818U 17041A   26116.41588501  .00000000  00000+0  00000+0 0  9992
2 42818   0.0129 225.5308 0002191 169.1796 294.9471  1.00271442 32297
INTELSAT 37E (IS-37E)   
1 42950U 17059A   26116.41917837 -.00000153  00000+0  00000+0 0  9996
2 42950   0.0177 247.0728 0002164 175.3145 284.9353  1.00273233 31544
AZERSPACE 2 (IS-38)     
1 43632U 18074A   26116.50299322  .00000124  00000+0  00000+0 0  9991
2 43632   0.0189 255.4421 0001449 127.9190  57.3301  1.00270534 27929
HORIZONS-3E             
1 43633U 18074B   26116.50044985 -.00000043  00000+0  00000+0 0  9996
2 43633   0.0374  83.8350 0000644 244.9859 234.8316  1.00270500 27828
AT&T T-16               
1 44333U 19034A   26116.47404641 -.00000127  00000+0  00000+0 0  9999
2 44333   0.0425  65.9048 0000767 151.4926  66.8803  1.00270492 25115
INTELSAT 39 (IS-39)     
1 44476U 19049B   26115.72199331  .00000000  00000+0  00000+0 0  9996
2 44476   0.0173 238.7985 0000479   6.5465 290.2524  1.00269540 24609
GALAXY 30 (G-30)        
1 46114U 20056C   26116.45636919  .00000000  00000+0  00000+0 0  9996
2 46114   0.0135 234.6557 0002469 173.0737 206.0180  1.00271118 20772
GALAXY 33 (G-33)        
1 54026U 22128A   26115.68333981  .00000065  00000+0  00000+0 0  9997
2 54026   0.0118 120.1579 0001842 261.7248 304.8067  1.00270707 13218
GALAXY 34 (G-34)        
1 54027U 22128B   26116.49142088  .00000047  00000+0  00000+0 0  9994
2 54027   0.0100 240.2584 0001510 154.5551 227.5825  1.00272952 13394
GALAXY 31 (G-31)        
1 54243U 22153A   26116.49697553  .00000001  00000+0  00000+0 0  9994
2 54243   0.0450  82.7897 0001307 306.8647 242.7448  1.00271371  6611
GALAXY 32 (G-32)        
1 54244U 22153B   26116.15739240 -.00000188  00000+0  00000+0 0  9995
2 54244   0.0163 278.2780 0002588 102.0283 159.5206  1.00275932 12622
GALAXY 35 (G-35)        
1 54741U 22170A   26116.47560641 -.00000174  00000+0  00000+0 0  9993
2 54741   0.0267 118.6853 0001994 275.5362 258.3590  1.00271697 12371
GALAXY 36 (G-36)        
1 54742U 22170B   26116.47638644 -.00000197  00000+0  00000+0 0  9998
2 54742   0.0111 195.4533 0002726 229.1224 232.4007  1.00271527 12259
GALAXY 37 (G-37)        
1 57493U 23112A   26116.43031008  .00000000  00000+0  00000+0 0  9990
2 57493   0.0139 242.4230 0002174 150.5858 209.3391  1.00270140 10021
